[{"OBJECT_NAME":"ONEWEB-0358","OBJECT_ID":"2021-090F","EPOCH":"2026-05-11T03:14:37.213152","MEAN_MOTION":13.20821713,"ECCENTRICITY":0.0001913,"INCLINATION":87.916,"RA_OF_ASC_NODE":281.8283,"ARG_OF_PERICENTER":102.6911,"MEAN_ANOMALY":257.4437,"EPHEMERIS_TYPE":0,"CLASSIFICATION_TYPE":"U","NORAD_CAT_ID":49284,"ELEMENT_SET_NO":999,"REV_AT_EPOCH":22566,"BSTAR":4.4178e-05,"MEAN_MOTION_DOT":3.1e-07,"MEAN_MOTION_DDOT":0.0},{"OBJECT_NAME":"ONEWEB-0359","OBJECT_ID":"2021-090G","EPOCH":"2026-05-11T03:10:29.309952","MEAN_MOTION":13.20744112,"ECCENTRICITY":0.0001781,"INCLINATION":87.9158,"RA_OF_ASC_NODE":281.8255,"ARG_OF_PERICENTER":106.4517,"MEAN_ANOMALY":253.6812,"EPHEMERIS_TYPE":0,"CLASSIFICATION_TYPE":"U","NORAD_CAT_ID":49285,"ELEMENT_SET_NO":999,"REV_AT_EPOCH":22564,"BSTAR":0.00014749,"MEAN_MOTION_DOT":7.3e-07,"MEAN_MOTION_DDOT":0.0},{"OBJECT_NAME":"ONEWEB-0360","OBJECT_ID":"2021-090H","EPOCH":"2026-05-11T02:56:27.025728","MEAN_MOTION":13.2082612,"ECCENTRICITY":0.0001764,"INCLINATION":87.9157,"RA_OF_ASC_NODE":281.8337,"ARG_OF_PERICENTER":102.5623,"MEAN_ANOMALY":257.5708,"EPHEMERIS_TYPE":0,"CLASSIFICATION_TYPE":"U","NORAD_CAT_ID":49286,"ELEMENT_SET_NO":999,"REV_AT_EPOCH":22495,"BSTAR":0.00034114000000000003,"MEAN_MOTION_DOT":1.52e-06,"MEAN_MOTION_DDOT":0.0},{"OBJECT_NAME":"ONEWEB-0361","OBJECT_ID":"2021-090J","EPOCH":"2026-05-11T04:18:32.416704","MEAN_MOTION":13.20773259,"ECCENTRICITY":0.0001894,"INCLINATION":87.9157,"RA_OF_ASC_NODE":281.8205,"ARG_OF_PERICENTER":101.0127,"MEAN_ANOMALY":259.1219,"EPHEMERIS_TYPE":0,"CLASSIFICATION_TYPE":"U","NORAD_CAT_ID":49287,"ELEMENT_SET_NO":999,"REV_AT_EPOCH":22541,"BSTAR":-6.5206e-05,"MEAN_MOTION_DOT":-1.4e-07,"MEAN_MOTION_DDOT":0.0},{"OBJECT_NAME":"ONEWEB-0362","OBJECT_ID":"2021-090K","EPOCH":"2026-05-11T00:38:53.092032","MEAN_MOTION":13.19725806,"ECCENTRICITY":0.0001533,"INCLINATION":87.9145,"RA_OF_ASC_NODE":312.3889,"ARG_OF_PERICENTER":87.7733,"MEAN_ANOMALY":272.3575,"EPHEMERIS_TYPE":0,"CLASSIFICATION_TYPE":"U","NORAD_CAT_ID":49288,"ELEMENT_SET_NO":999,"REV_AT_EPOCH":22201,"BSTAR":5.1401e-05,"MEAN_MOTION_DOT":3.4e-07,"MEAN_MOTION_DDOT":0.0},{"OBJECT_NAME":"ONEWEB-0363","OBJECT_ID":"2021-090L","EPOCH":"2026-05-11T02:51:46.332000","MEAN_MOTION":13.20855408,"ECCENTRICITY":0.0002151,"INCLINATION":87.9159,"RA_OF_ASC_NODE":281.8331,"ARG_OF_PERICENTER":101.8349,"MEAN_ANOMALY":258.3026,"EPHEMERIS_TYPE":0,"CLASSIFICATION_TYPE":"U","NORAD_CAT_ID":49289,"ELEMENT_SET_NO":999,"REV_AT_EPOCH":22541,"BSTAR":0.00017498,"MEAN_MOTION_DOT":8.4e-07,"MEAN_MOTION_DDOT":0.0},{"OBJECT_NAME":"ONEWEB-0364","OBJECT_ID":"2021-090M","EPOCH":"2026-05-11T03:46:51.100032","MEAN_MOTION":13.20743175,"ECCENTRICITY":0.0001827,"INCLINATION":87.9155,"RA_OF_ASC_NODE":281.8344,"ARG_OF_PERICENTER":98.0366,"MEAN_ANOMALY":262.0975,"EPHEMERIS_TYPE":0,"CLASSIFICATION_TYPE":"U","NORAD_CAT_ID":49290,"ELEMENT_SET_NO":999,"REV_AT_EPOCH":22655,"BSTAR":8.484200000000001e-06,"MEAN_MOTION_DOT":1.6e-07,"MEAN_MOTION_DDOT":0.0},{"OBJECT_NAME":"ONEWEB-0365","OBJECT_ID":"2021-090N","EPOCH":"2026-05-11T04:30:53.796096","MEAN_MOTION":13.19725931,"ECCENTRICITY":0.0001764,"INCLINATION":87.9157,"RA_OF_ASC_NODE":312.342,"ARG_OF_PERICENTER":87.9285,"MEAN_ANOMALY":272.205,"EPHEMERIS_TYPE":0,"CLASSIFICATION_TYPE":"U","NORAD_CAT_ID":49291,"ELEMENT_SET_NO":999,"REV_AT_EPOCH":22154,"BSTAR":-0.0001146,"MEAN_MOTION_DOT":-3.3e-07,"MEAN_MOTION_DDOT":0.0},{"OBJECT_NAME":"ONEWEB-0366","OBJECT_ID":"2021-090P","EPOCH":"2026-05-10T23:39:44.773632","MEAN_MOTION":13.14503707,"ECCENTRICITY":0.0001775,"INCLINATION":87.8924,"RA_OF_ASC_NODE":297.1301,"ARG_OF_PERICENTER":96.4951,"MEAN_ANOMALY":263.6381,"EPHEMERIS_TYPE":0,"CLASSIFICATION_TYPE":"U","NORAD_CAT_ID":49292,"ELEMENT_SET_NO":999,"REV_AT_EPOCH":22267,"BSTAR":0.00064982,"MEAN_MOTION_DOT":2.54e-06,"MEAN_MOTION_DDOT":0.0},{"OBJECT_NAME":"ONEWEB-0367","OBJECT_ID":"2021-090Q","EPOCH":"2026-05-11T02:49:58.424448","MEAN_MOTION":13.20746905,"ECCENTRICITY":0.0001598,"INCLINATION":87.9185,"RA_OF_ASC_NODE":281.8285,"ARG_OF_PERICENTER":80.5183,"MEAN_ANOMALY":279.6131,"EPHEMERIS_TYPE":0,"CLASSIFICATION_TYPE":"U","NORAD_CAT_ID":49293,"ELEMENT_SET_NO":999,"REV_AT_EPOCH":22493,"BSTAR":-0.0033881000000000002,"MEAN_MOTION_DOT":-1.364e-05,"MEAN_MOTION_DDOT":0.0},{"OBJECT_NAME":"ONEWEB-0368","OBJECT_ID":"2021-090R","EPOCH":"2026-05-11T04:00:53.208000","MEAN_MOTION":13.20658286,"ECCENTRICITY":0.0002408,"INCLINATION":87.9148,"RA_OF_ASC_NODE":281.8386,"ARG_OF_PERICENTER":85.8758,"MEAN_ANOMALY":274.265,"EPHEMERIS_TYPE":0,"CLASSIFICATION_TYPE":"U","NORAD_CAT_ID":49294,"ELEMENT_SET_NO":999,"REV_AT_EPOCH":22609,"BSTAR":1.3555000000000002e-05,"MEAN_MOTION_DOT":1.8e-07,"MEAN_MOTION_DDOT":0.0},{"OBJECT_NAME":"ONEWEB-0369","OBJECT_ID":"2021-090S","EPOCH":"2026-05-11T00:45:42.759360","MEAN_MOTION":13.19724981,"ECCENTRICITY":0.0001848,"INCLINATION":87.9145,"RA_OF_ASC_NODE":312.3845,"ARG_OF_PERICENTER":88.073,"MEAN_ANOMALY":272.0615,"EPHEMERIS_TYPE":0,"CLASSIFICATION_TYPE":"U","NORAD_CAT_ID":49295,"ELEMENT_SET_NO":999,"REV_AT_EPOCH":22151,"BSTAR":-8.1002e-05,"MEAN_MOTION_DOT":-1.9e-07,"MEAN_MOTION_DDOT":0.0},{"OBJECT_NAME":"ONEWEB-0370","OBJECT_ID":"2021-090T","EPOCH":"2026-05-11T03:03:28.125504","MEAN_MOTION":13.20784513,"ECCENTRICITY":0.0001602,"INCLINATION":87.9158,"RA_OF_ASC_NODE":281.8322,"ARG_OF_PERICENTER":102.5482,"MEAN_ANOMALY":257.583,"EPHEMERIS_TYPE":0,"CLASSIFICATION_TYPE":"U","NORAD_CAT_ID":49296,"ELEMENT_SET_NO":999,"REV_AT_EPOCH":22497,"BSTAR":0.00015345000000000002,"MEAN_MOTION_DOT":7.5e-07,"MEAN_MOTION_DDOT":0.0},{"OBJECT_NAME":"ONEWEB-0371","OBJECT_ID":"2021-090U","EPOCH":"2026-05-11T04:35:26.350080","MEAN_MOTION":13.19725739,"ECCENTRICITY":0.0001696,"INCLINATION":87.9148,"RA_OF_ASC_NODE":312.3429,"ARG_OF_PERICENTER":88.506,"MEAN_ANOMALY":271.6267,"EPHEMERIS_TYPE":0,"CLASSIFICATION_TYPE":"U","NORAD_CAT_ID":49297,"ELEMENT_SET_NO":999,"REV_AT_EPOCH":22157,"BSTAR":-4.444e-05,"MEAN_MOTION_DOT":-5e-08,"MEAN_MOTION_DDOT":0.0},{"OBJECT_NAME":"ONEWEB-0372","OBJECT_ID":"2021-090V","EPOCH":"2026-05-11T02:47:58.070112","MEAN_MOTION":13.20658978,"ECCENTRICITY":0.0001869,"INCLINATION":87.9159,"RA_OF_ASC_NODE":281.8356,"ARG_OF_PERICENTER":96.692,"MEAN_ANOMALY":263.4426,"EPHEMERIS_TYPE":0,"CLASSIFICATION_TYPE":"U","NORAD_CAT_ID":49298,"ELEMENT_SET_NO":999,"REV_AT_EPOCH":22494,"BSTAR":-2.7867999999999998e-05,"MEAN_MOTION_DOT":2e-08,"MEAN_MOTION_DDOT":0.0},{"OBJECT_NAME":"ONEWEB-0373","OBJECT_ID":"2021-090W","EPOCH":"2026-05-10T21:58:33.255552","MEAN_MOTION":13.20868511,"ECCENTRICITY":0.0001862,"INCLINATION":87.9156,"RA_OF_ASC_NODE":281.8774,"ARG_OF_PERICENTER":100.6519,"MEAN_ANOMALY":259.4824,"EPHEMERIS_TYPE":0,"CLASSIFICATION_TYPE":"U","NORAD_CAT_ID":49299,"ELEMENT_SET_NO":999,"REV_AT_EPOCH":22610,"BSTAR":0.0002367,"MEAN_MOTION_DOT":1.09e-06,"MEAN_MOTION_DDOT":0.0}]