ONEWEB-0358             
1 49284U 21090F   26131.13515293  .00000031  00000+0  44178-4 0  9992
2 49284  87.9160 281.8283 0001913 102.6911 257.4437 13.20821713225667
ONEWEB-0359             
1 49285U 21090G   26131.13228368  .00000073  00000+0  14749-3 0  9993
2 49285  87.9158 281.8255 0001781 106.4517 253.6812 13.20744112225641
ONEWEB-0360             
1 49286U 21090H   26131.12253502  .00000152  00000+0  34114-3 0  9997
2 49286  87.9157 281.8337 0001764 102.5623 257.5708 13.20826120224958
ONEWEB-0361             
1 49287U 21090J   26131.17954186 -.00000014  00000+0 -65206-4 0  9995
2 49287  87.9157 281.8205 0001894 101.0127 259.1219 13.20773259225411
ONEWEB-0362             
1 49288U 21090K   26131.02700338  .00000034  00000+0  51401-4 0  9990
2 49288  87.9145 312.3889 0001533  87.7733 272.3575 13.19725806222018
ONEWEB-0363             
1 49289U 21090L   26131.11928625  .00000084  00000+0  17498-3 0  9994
2 49289  87.9159 281.8331 0002151 101.8349 258.3026 13.20855408225410
ONEWEB-0364             
1 49290U 21090M   26131.15753588  .00000016  00000+0  84842-5 0  9998
2 49290  87.9155 281.8344 0001827  98.0366 262.0975 13.20743175226555
ONEWEB-0365             
1 49291U 21090N   26131.18812264 -.00000033  00000+0 -11460-3 0  9994
2 49291  87.9157 312.3420 0001764  87.9285 272.2050 13.19725931221549
ONEWEB-0366             
1 49292U 21090P   26130.98593488  .00000254  00000+0  64982-3 0  9996
2 49292  87.8924 297.1301 0001775  96.4951 263.6381 13.14503707222672
ONEWEB-0367             
1 49293U 21090Q   26131.11803732 -.00001364  00000+0 -33881-2 0  9997
2 49293  87.9185 281.8285 0001598  80.5183 279.6131 13.20746905224935
ONEWEB-0368             
1 49294U 21090R   26131.16728250  .00000018  00000+0  13555-4 0  9995
2 49294  87.9148 281.8386 0002408  85.8758 274.2650 13.20658286226094
ONEWEB-0369             
1 49295U 21090S   26131.03174490 -.00000019  00000+0 -81002-4 0  9998
2 49295  87.9145 312.3845 0001848  88.0730 272.0615 13.19724981221517
ONEWEB-0370             
1 49296U 21090T   26131.12740886  .00000075  00000+0  15345-3 0  9993
2 49296  87.9158 281.8322 0001602 102.5482 257.5830 13.20784513224975
ONEWEB-0371             
1 49297U 21090U   26131.19127720 -.00000005  00000+0 -44440-4 0  9991
2 49297  87.9148 312.3429 0001696  88.5060 271.6267 13.19725739221578
ONEWEB-0372             
1 49298U 21090V   26131.11664433  .00000002  00000+0 -27868-4 0  9992
2 49298  87.9159 281.8356 0001869  96.6920 263.4426 13.20658978224949
ONEWEB-0373             
1 49299U 21090W   26130.91566268  .00000109  00000+0  23670-3 0  9990
2 49299  87.9156 281.8774 0001862 100.6519 259.4824 13.20868511226107
